0 SL-6 R/B(2)
1 23197U 94048D   13286.94513901 -.00000388  00000-0  00000+0 0  4588
2 23197 067.3554 075.6713 6300523 198.2828 120.9143 02.03843050142888
0 SL-6 R/B(2)
1 23197U 94048D   13287.01707589 -.00000382  00000-0  00000+0 0  4599
2 23197 067.3440 075.6706 6300661 198.2939 173.6934 02.03843740142889
0 SL-6 R/B(2)
1 23197U 94048D   13289.89593192 -.00000131  00000-0  00000+0 0  4604
2 23197 067.3456 075.4539 6300339 198.2376 126.2605 02.03840129142949
0 SL-6 R/B(2)
1 23197U 94048D   13294.55678635  .00000429  00000-0  00000+0 0  4619
2 23197 067.3499 075.1035 6299853 198.1453 306.4516 02.03837442143035
